NUSANTARA TIGA (SATRIA) 
1 57045U 23086A   26170.77928565 -.00000240  00000+0  00000+0 0  9990
2 57045   0.0343 354.8786 0003726 351.5739 348.0866  1.00271192  9787
H2SAT (HEINRICH HERTZ)  
1 57213U 23093A   26169.60986911 -.00000004  00000+0  00000+0 0  9992
2 57213   0.0587 104.5799 0000842  91.9025 290.6226  1.00270922 10938
SYRACUSE 4B             
1 57214U 23093B   26170.10746517 -.00000060  00000+0  00000+0 0  9998
2 57214   0.0179  27.8668 0000249 148.0958 123.6146  1.00269493  6985
JUPITER 3 (ECHOSTAR 24) 
1 57479U 23108A   26170.52078589  .00000000  00000+0  00000+0 0  9994
2 57479   0.0217 356.8940 0001304  90.3513 272.7697  1.00270358 10667
GALAXY 37 (G-37)        
1 57493U 23112A   26170.51920360  .00000042  00000+0  00000+0 0  9993
2 57493   0.0013 351.1399 0001980  95.5303 240.9805  1.00271199 10568
LUDI TANCE-4 01A        
1 57624U 23120A   26170.97801700 -.00000180  00000+0  00000+0 0  9998
2 57624  15.1003 193.8901 0001228  34.2056 121.8435  1.00268650 10575
TJS-10                  
1 58204U 23169A   26170.76324712 -.00000256  00000+0  00000+0 0  9990
2 58204   2.5521  80.4616 0003830 108.7257  85.9856  1.00273950  9563
ZHONGXING-6E            
1 58253U 23172A   26170.77321895 -.00000367  00000+0  00000+0 0  9991
2 58253   0.0447  90.0073 0002807 352.6239 219.2431  1.00270212  9686
YAOGAN-41               
1 58582U 23197A   26170.90689016 -.00000368  00000+0  00000+0 0  9991
2 58582   3.1229 313.1995 0014086 193.5783 211.0078  1.00268971  9353
OVZON-3                 
1 58698U 24003A   26170.87649450  .00000046  00000+0  00000+0 0  9992
2 58698   0.0055  38.4781 0000103 162.2640  82.5664  1.00272396  7473
INSAT-3DS               
1 58990U 24033A   26170.76660736 -.00000162  00000+0  00000+0 0  9998
2 58990   0.0468 106.6851 0001136 330.0314 189.3438  1.00271097 47096
MERAH PUTIH 2           
1 58995U 24035A   26170.27374779  .00000000  00000+0  00000+0 0  9990
2 58995   0.0160 358.4011 0001089  81.7200  38.8709  1.00266233  8616
TJS-11                  
1 59020U 24037A   26170.89652914 -.00000370  00000+0  00000+0 0  9991
2 59020   4.1952 327.1337 0003212 107.6980 268.6602  1.00274531  8612
HULIANWAN GAOGUI-01 (H*)
1 59069U 24040A   26170.54312881  .00000150  00000+0  00000+0 0  9991
2 59069   0.0677 330.6803 0003036  65.9325 100.2455  1.00271979  7354
EUTELSAT 36D            
1 59346U 24059A   26170.54364881  .00000150  00000+0  00000+0 0  9996
2 59346   0.0177  23.6235 0000127 159.6317 316.0908  1.00270097  8176
PAKSAT-MM1              
1 59915U 24104A   26169.97375462  .00000147  00000+0  00000+0 0  9997
2 59915   0.0346  88.1832 0002507 343.6472 224.1221  1.00268619  7540
ASTRA 1P (SES-24)       
1 60086U 24115A   26169.61350912  .00000113  00000+0  00000+0 0  9997
2 60086   0.0576 354.9073 0000904 341.5376 170.4799  1.00269660  7210
GOES 19                 
1 60133U 24119A   26170.37908251 -.00000258  00000+0  00000+0 0  9995
2 60133   0.0249 218.9773 0002306 265.9040 204.0106  1.00309682  6989
ZHONGXING-3A            
1 60179U 24122A   26170.94387038 -.00000319  00000+0  00000+0 0  9994
2 60179   0.0395 113.6670 0001096   7.8293 228.0326  1.00271398  7338
TURKSAT 6A              
1 60233U 24127A   26170.75872066  .00000000  00000+0  00000+0 0  9995
2 60233   0.0138 191.4378 0001666 297.9675  93.7012  1.00270919  7047
HULIANWAN GAOGUI-02 (H*)
1 60327U 24135A   26170.85196174 -.00000179  00000+0  00000+0 0  9996
2 60327   0.0433 355.2266 0007613  11.8848   0.8010  1.00268600  7522
ZHONGXING-4A            
1 60606U 24151A   26170.77382560 -.00000368  00000+0  00000+0 0  9991
2 60606   1.3065 270.8038 0000115 177.5840 216.4115  1.00272483  6780
HULIANWAN GAOGUI-03 (H*)
1 61503U 24181A   26170.87770185 -.00000246  00000+0  00000+0 0  9991
2 61503   0.0459 358.3743 0001138  95.3158  53.2376  1.00270259  6853
DSN-3 (KIRAMEKI-3)      
1 61733U 24198A   26170.77893897 -.00000256  00000+0  00000+0 0  9990
2 61733   0.0286 280.2849 0000576 190.8394 221.3500  1.00270971  5941
KOREASAT 6A             
1 61910U 24206A   26170.77339227 -.00000367  00000+0  00000+0 0  9992
2 61910   0.0257  97.0850 0000818 327.3804 237.9476  1.00269362  5862
OPTUS-X (ADS-01)        
1 62006U 24212A   26170.78136566 -.00000149  00000+0  00000+0 0  9996
2 62006   0.0129 307.2114 0001846 183.2241 215.2324  1.00271787  5788
GSAT-N2 (GSAT-20)       
1 62028U 24214A   26170.86229610 -.00000024  00000+0  00000+0 0  9996
2 62028   0.0454 109.1882 0001922 329.1809 208.0801  1.00270501  5929
SXM-9                   
1 62259U 24234A   26169.87800958 -.00000211  00000+0  00000+0 0  9991
2 62259   0.0124 350.0214 0005030 325.0221 182.9807  1.00271223  5593
TJS-12                  
1 62374U 24246A   26170.77937230 -.00000237  00000+0  00000+0 0  9995
2 62374   0.6639 299.4684 0002066  84.3135 311.3127  1.00269132  5599
NUVIEW ALPHA            
1 62455U 24252B   26170.46572341 -.00000222  00000+0  00000+0 0  9990
2 62455   0.0533  32.5321 0001099  35.5246 284.2199  1.00272390  3849
AGILA                   
1 62456U 24252C   26170.78049897 -.00000187  00000+0  00000+0 0  9991
2 62456   0.0629 124.1591 0001223 335.8193 241.1569  1.00271234  5187
