OBJECT_NAME,OBJECT_ID,EPOCH,MEAN_MOTION,ECCENTRICITY,INCLINATION,RA_OF_ASC_NODE,ARG_OF_PERICENTER,MEAN_ANOMALY,EPHEMERIS_TYPE,CLASSIFICATION_TYPE,NORAD_CAT_ID,ELEMENT_SET_NO,REV_AT_EPOCH,BSTAR,MEAN_MOTION_DOT,MEAN_MOTION_DDOT
NUSANTARA TIGA (SATRIA),2023-086A,2026-06-19T18:42:10.280160,1.00271192,.0003726,0.0343,354.8786,351.5739,348.0866,0,U,57045,999,978,0,-.24E-5,0
H2SAT (HEINRICH HERTZ),2023-093A,2026-06-18T14:38:12.691104,1.00270922,.00008425,0.0587,104.5799,91.9025,290.6226,0,U,57213,999,1093,0,-.4E-7,0
SYRACUSE 4B,2023-093B,2026-06-19T02:34:44.990688,1.00269493,.00002491,0.0179,27.8668,148.0958,123.6146,0,U,57214,999,698,0,-.6E-6,0
JUPITER 3 (ECHOSTAR 24),2023-108A,2026-06-19T12:29:55.900896,1.00270358,.0001304,0.0217,356.8940,90.3513,272.7697,0,U,57479,999,1066,0,0,0
GALAXY 37 (G-37),2023-112A,2026-06-19T12:27:39.191040,1.00271199,.00019805,0.0013,351.1399,95.5303,240.9805,0,U,57493,999,1056,0,.42E-6,0
LUDI TANCE-4 01A,2023-120A,2026-06-19T23:28:20.668800,1.00268650,.0001228,15.1003,193.8901,34.2056,121.8435,0,U,57624,999,1057,0,-.18E-5,0
TJS-10,2023-169A,2026-06-19T18:19:04.551168,1.00273950,.000383,2.5521,80.4616,108.7257,85.9856,0,U,58204,999,956,0,-.256E-5,0
ZHONGXING-6E,2023-172A,2026-06-19T18:33:26.117280,1.00270212,.0002807,0.0447,90.0073,352.6239,219.2431,0,U,58253,999,968,0,-.367E-5,0
YAOGAN-41,2023-197A,2026-06-19T21:45:55.309824,1.00268971,.0014086,3.1229,313.1995,193.5783,211.0078,0,U,58582,999,935,0,-.368E-5,0
OVZON-3,2024-003A,2026-06-19T21:02:09.124800,1.00272396,.0000103,0.0055,38.4781,162.2640,82.5664,0,U,58698,999,747,0,.46E-6,0
INSAT-3DS,2024-033A,2026-06-19T18:23:54.875904,1.00271097,.0001136,0.0468,106.6851,330.0314,189.3438,0,U,58990,999,4709,0,-.162E-5,0
MERAH PUTIH 2,2024-035A,2026-06-19T06:34:11.809056,1.00266233,.00010899,0.0160,358.4011,81.7200,38.8709,0,U,58995,999,861,0,0,0
TJS-11,2024-037A,2026-06-19T21:31:00.117696,1.00274531,.0003212,4.1952,327.1337,107.6980,268.6602,0,U,59020,999,861,0,-.37E-5,0
HULIANWAN GAOGUI-01 (HG-01),2024-040A,2026-06-19T13:02:06.329184,1.00271979,.00030368,0.0677,330.6803,65.9325,100.2455,0,U,59069,999,735,0,.15E-5,0
EUTELSAT 36D,2024-059A,2026-06-19T13:02:51.257184,1.00270097,.00001278,0.0177,23.6235,159.6317,316.0908,0,U,59346,999,817,0,.15E-5,0
PAKSAT-MM1,2024-104A,2026-06-18T23:22:12.399168,1.00268619,.00025075,0.0346,88.1832,343.6472,224.1221,0,U,59915,999,754,0,.147E-5,0
ASTRA 1P (SES-24),2024-115A,2026-06-18T14:43:27.187968,1.00269660,.00009041,0.0576,354.9073,341.5376,170.4799,0,U,60086,999,721,0,.113E-5,0
GOES 19,2024-119A,2026-06-19T09:05:52.728864,1.00309682,.00023066,0.0249,218.9773,265.9040,204.0106,0,U,60133,999,698,0,-.258E-5,0
ZHONGXING-3A,2024-122A,2026-06-19T22:39:10.400832,1.00271398,.0001096,0.0395,113.6670,7.8293,228.0326,0,U,60179,999,733,0,-.319E-5,0
TURKSAT 6A,2024-127A,2026-06-19T18:12:33.465024,1.00270919,.0001666,0.0138,191.4378,297.9675,93.7012,0,U,60233,999,704,0,0,0
HULIANWAN GAOGUI-02 (HG-02),2024-135A,2026-06-19T20:26:49.494336,1.00268600,.0007613,0.0433,355.2266,11.8848,0.8010,0,U,60327,999,752,0,-.179E-5,0
ZHONGXING-4A,2024-151A,2026-06-19T18:34:18.531840,1.00272483,.0000115,1.3065,270.8038,177.5840,216.4115,0,U,60606,999,678,0,-.368E-5,0
HULIANWAN GAOGUI-03 (HG-03),2024-181A,2026-06-19T21:03:53.439840,1.00270259,.0001138,0.0459,358.3743,95.3158,53.2376,0,U,61503,999,685,0,-.246E-5,0
DSN-3 (KIRAMEKI-3),2024-198A,2026-06-19T18:41:40.327008,1.00270971,.0000576,0.0286,280.2849,190.8394,221.3500,0,U,61733,999,594,0,-.256E-5,0
KOREASAT 6A,2024-206A,2026-06-19T18:33:41.092128,1.00269362,.0000818,0.0257,97.0850,327.3804,237.9476,0,U,61910,999,586,0,-.367E-5,0
OPTUS-X (ADS-01),2024-212A,2026-06-19T18:45:09.993024,1.00271787,.0001846,0.0129,307.2114,183.2241,215.2324,0,U,62006,999,578,0,-.149E-5,0
GSAT-N2 (GSAT-20),2024-214A,2026-06-19T20:41:42.383040,1.00270501,.0001922,0.0454,109.1882,329.1809,208.0801,0,U,62028,999,592,0,-.24E-6,0
SXM-9,2024-234A,2026-06-18T21:04:20.027712,1.00271223,.000503,0.0124,350.0214,325.0221,182.9807,0,U,62259,999,559,0,-.211E-5,0
TJS-12,2024-246A,2026-06-19T18:42:17.766720,1.00269132,.0002066,0.6639,299.4684,84.3135,311.3127,0,U,62374,999,559,0,-.237E-5,0
NUVIEW ALPHA,2024-252B,2026-06-19T11:10:38.502624,1.00272390,.00010991,0.0533,32.5321,35.5246,284.2199,0,U,62455,999,384,0,-.222E-5,0
AGILA,2024-252C,2026-06-19T18:43:55.111008,1.00271234,.0001223,0.0629,124.1591,335.8193,241.1569,0,U,62456,999,518,0,-.187E-5,0
